0 SATCOM C4
1 22096U 92057A   13282.74350641 -.00000254  00000-0  10000-3 0  9332
2 22096 008.3532 053.1121 0003993 091.9668 268.1020 00.99018152 79042
0 SATCOM C4
1 22096U 92057A   13283.75340528  .00000000  00000-0  10000-3 0  9357
2 22096 008.3564 053.0974 0003827 119.2704 240.7996 00.99013565 79055
0 SATCOM C4
1 22096U 92057A   13284.76327810 -.00000213  00000-0  10000-3 0  9344
2 22096 008.3570 053.0898 0004302 089.3993 270.6790 00.99017108 79065
0 SATCOM C4
1 22096U 92057A   13285.77316912 -.00000187  00000-0  10000-3 0  9358
2 22096 008.3594 053.0778 0003721 105.0344 255.0362 00.99016589 79073
0 SATCOM C4
1 22096U 92057A   13287.79294511 -.00000128  00000-0  10000-3 0  9368
2 22096 008.3632 053.0554 0003752 104.8551 255.2119 00.99015593 79097
0 SATCOM C4
1 22096U 92057A   13289.81268965 -.00000067  00000-0  10000-3 0  9370
2 22096 008.3671 053.0331 0003813 106.7154 253.3300 00.99014784 79116
0 SATCOM C4
1 22096U 92057A   13292.84231013  .00000013  00000-0  10000-3 0  9382
2 22096 008.3729 052.9995 0003885 108.0094 251.9989 00.99014095 79146
0 SATCOM C4
1 22096U 92057A   13294.86210177  .00000049  00000-0  10000-3 0  9394
2 22096 008.3771 052.9769 0004019 108.1525 251.8471 00.99014074 79166
